NORAD_CAT_ID,OBJECT_NAME,OBJECT_TYPE,EPOCH,MEAN_MOTION,ECCENTRICITY,INCLINATION,RA_OF_ASC_NODE,ARG_OF_PERICENTER,MEAN_ANOMALY,BSTAR,MEAN_MOTION_DOT,MEAN_MOTION_DDOT,TLE_LINE0,TLE_LINE1,TLE_LINE2,SEMIMAJOR_AXIS,PERIOD,APOGEE,PERIGEE,DECAYED
53396.0,STARLINK-4524,PAYLOAD,2024-02-24 17:51:54,15.08838617,0.0001367,53.2152,223.8218,85.9803,274.1345,5.0878e-05,5.22e-06,0.0,0 STARLINK-4524,1 53396U 22097J   24055.74437927  .00000522  00000-0  50878-4 0  9996,2 53396  53.2152 223.8218 0001367  85.9803 274.1345 15.08838617 86201,6917.885,95.438,540.695,538.804,0.0
53396.0,STARLINK-4524,PAYLOAD,2024-02-25 14:31:54,15.08842488,0.0001407,53.2159,219.9557,86.1046,274.0107,8.9381e-05,1.135e-05,0.0,0 STARLINK-4524,1 53396U 22097J   24056.60549627  .00001135  00000-0  89381-4 0  9995,2 53396  53.2159 219.9557 0001407  86.1046 274.0107 15.08842488 86337,6917.873,95.437,540.711,538.764,0.0
53396.0,STARLINK-4524,PAYLOAD,2024-02-25 17:42:40,15.0884687,0.0001389,53.2162,219.3613,85.7461,274.369,0.00012423,1.69e-05,0.0,0 STARLINK-4524,1 53396U 22097J   24056.73797237  .00001690  00000-0  12423-3 0  9999,2 53396  53.2162 219.3613 0001389  85.7461 274.3690 15.08846870 85869,6917.859,95.437,540.685,538.763,0.0
53396.0,STARLINK-4524,PAYLOAD,2024-02-26 03:15:00,15.08835421,0.0001353,53.2154,217.5762,82.2087,277.9059,3.2812e-05,2.34e-06,0.0,0 STARLINK-4524,1 53396U 22097J   24057.13542263  .00000234  00000-0  32812-4 0  9999,2 53396  53.2154 217.5762 0001353  82.2087 277.9059 15.08835421 85927,6917.894,95.438,540.695,538.823,0.0
53396.0,STARLINK-4524,PAYLOAD,2024-02-26 11:11:57,15.08824793,0.0001339,53.2162,216.0907,90.7449,269.3697,-6.9545e-05,-1.394e-05,0.0,0 STARLINK-4524,1 53396U 22097J   24057.46663482 -.00001394  00000-0 -69545-4 0  9995,2 53396  53.2162 216.0907 0001339  90.7449 269.3697 15.08824793 85979,6917.927,95.439,540.718,538.866,0.0
53396.0,STARLINK-4524,PAYLOAD,2024-02-26 14:22:43,15.0882881,0.0001537,53.2189,215.5004,106.7515,253.3645,-3.5168e-05,-8.47e-06,0.0,0 STARLINK-4524,1 53396U 22097J   24057.59911242 -.00000847  00000-0 -35168-4 0  9995,2 53396  53.2189 215.5004 0001537 106.7515 253.3645 15.08828810 86489,6917.915,95.438,540.843,538.716,0.0
53396.0,STARLINK-4524,PAYLOAD,2024-02-26 15:58:06,15.0882887,0.0001541,53.2186,215.203,106.8873,253.2288,-3.3255e-05,-8.17e-06,0.0,0 STARLINK-4524,1 53396U 22097J   24057.66535274 -.00000817  00000-0 -33255-4 0  9992,2 53396  53.2186 215.2030 0001541 106.8873 253.2288 15.08828870 86494,6917.914,95.438,540.845,538.713,0.0
53396.0,STARLINK-4524,PAYLOAD,2024-02-27 14:13:29,15.08839853,0.0001612,53.2189,211.0413,113.6142,246.5019,8.7062e-06,-1.49e-06,0.0,0 STARLINK-4524,1 53396U 22097J   24058.59270746 -.00000149  00000-0  87062-5 0  9998,2 53396  53.2189 211.0413 0001612 113.6142 246.5019 15.08839853 86636,6917.881,95.438,540.861,538.631,0.0
53396.0,STARLINK-4524,PAYLOAD,2024-02-27 18:59:38,15.08845631,0.0001468,53.2173,210.1449,102.2716,257.844,4.5031e-05,4.29e-06,0.0,0 STARLINK-4524,1 53396U 22097J   24058.79142322  .00000429  00000-0  45031-4 0  9997,2 53396  53.2173 210.1449 0001468 102.2716 257.8440 15.08845631 86171,6917.863,95.437,540.744,538.713,0.0
53396.0,STARLINK-4524,PAYLOAD,2024-02-28 02:56:35,15.08840595,0.0001483,53.2175,208.6583,99.1615,260.9545,-1.8268e-05,-5.79e-06,0.0,0 STARLINK-4524,1 53396U 22097J   24059.12262847 -.00000579  00000-0 -18268-4 0  9990,2 53396  53.2175 208.6583 0001483  99.1615 260.9545 15.08840595 86224,6917.879,95.438,540.769,538.718,0.0
53396.0,STARLINK-4524,PAYLOAD,2024-02-28 14:04:17,15.08830275,0.0002101,53.2171,206.5765,96.53,263.5931,0.00016594,2.353e-05,0.0,0 STARLINK-4524,1 53396U 22097J   24059.58631510  .00002353  00000-0  16594-3 0  9996,2 53396  53.2171 206.5765 0002101  96.5300 263.5931 15.08830275 86782,6917.91,95.438,541.229,538.322,0.0
53396.0,STARLINK-4524,PAYLOAD,2024-02-28 18:50:26,15.08838561,0.0001501,53.2172,205.6833,105.9592,254.1566,0.00015461,2.173e-05,0.0,0 STARLINK-4524,1 53396U 22097J   24059.78502865  .00002173  00000-0  15461-3 0  9990,2 53396  53.2172 205.6833 0001501 105.9592 254.1566 15.08838561 86810,6917.885,95.438,540.788,538.711,0.0
53396.0,STARLINK-4524,PAYLOAD,2024-02-29 09:08:54,15.08842916,0.000139,53.2168,203.0066,108.8543,251.26,5.6368e-06,-1.98e-06,0.0,0 STARLINK-4524,1 53396U 22097J   24060.38119095 -.00000198  00000-0  56368-5 0  9996,2 53396  53.2168 203.0066 0001390 108.8543 251.2600 15.08842916 86411,6917.871,95.437,540.698,538.775,0.0
53396.0,STARLINK-4524,PAYLOAD,2024-02-29 15:30:27,15.08842841,0.0001389,53.217,201.8172,101.2005,258.9143,2.6028e-06,-2.47e-06,0.0,0 STARLINK-4524,1 53396U 22097J   24060.64615075 -.00000247  00000-0  26028-5 0  9999,2 53396  53.2170 201.8172 0001389 101.2005 258.9143 15.08842841 86947,6917.872,95.437,540.698,538.776,0.0
53396.0,STARLINK-4524,PAYLOAD,2024-02-29 17:05:50,15.08845167,0.0001367,53.2168,201.5208,96.2324,263.8824,4.5163e-05,4.31e-06,0.0,0 STARLINK-4524,1 53396U 22097J   24060.71238807  .00000431  00000-0  45163-4 0  9995,2 53396  53.2168 201.5208 0001367  96.2324 263.8824 15.08845167 86950,6917.865,95.437,540.675,538.784,0.0
53396.0,STARLINK-4524,PAYLOAD,2024-03-01 13:45:51,15.08841201,0.0001316,53.2167,197.6544,94.2193,265.8949,6.8711e-05,8.06e-06,0.0,0 STARLINK-4524,1 53396U 22097J   24061.57350886  .00000806  00000-0  68711-4 0  9992,2 53396  53.2167 197.6544 0001316  94.2193 265.8949 15.08841201 87083,6917.877,95.437,540.652,538.831,0.0
53396.0,STARLINK-4524,PAYLOAD,2024-03-01 15:21:14,15.08845846,0.0001316,53.2167,197.3582,91.8524,268.2619,6.5917e-05,7.61e-06,0.0,0 STARLINK-4524,1 53396U 22097J   24061.63974630  .00000761  00000-0  65917-4 0  9993,2 53396  53.2167 197.3582 0001316  91.8524 268.2619 15.08845846 86600,6917.863,95.437,540.638,538.817,0.0
53396.0,STARLINK-4524,PAYLOAD,2024-03-02 12:01:15,15.08841197,0.0001227,53.2176,193.491,90.2123,269.901,2.0633e-06,-2.55e-06,0.0,0 STARLINK-4524,1 53396U 22097J   24062.50087056 -.00000255  00000-0  20633-5 0  9993,2 53396  53.2176 193.4910 0001227  90.2123 269.9010 15.08841197 86733,6917.877,95.437,540.591,538.893,0.0
53396.0,STARLINK-4524,PAYLOAD,2024-03-02 13:36:38,15.08841679,0.0001232,53.2172,193.194,88.8496,271.2637,1.5004e-05,-4.9e-07,0.0,0 STARLINK-4524,1 53396U 22097J   24062.56710976 -.00000049  00000-0  15004-4 0  9999,2 53396  53.2172 193.1940 0001232  88.8496 271.2637 15.08841679 87233,6917.875,95.437,540.593,538.888,0.0
53396.0,STARLINK-4524,PAYLOAD,2024-03-02 15:12:01,15.08843061,0.0001217,53.2175,192.8968,88.1863,271.9268,2.1208e-05,5e-07,0.0,0 STARLINK-4524,1 53396U 22097J   24062.63334859  .00000050  00000-0  21208-4 0  9993,2 53396  53.2175 192.8968 0001217  88.1863 271.9268 15.08843061 87241,6917.871,95.437,540.578,538.894,0.0
53396.0,STARLINK-4524,PAYLOAD,2024-03-03 15:02:48,15.08834932,0.0001452,53.2178,188.436,92.6223,267.4935,0.00011044,1.47e-05,0.0,0 STARLINK-4524,1 53396U 22097J   24063.62695054  .00001470  00000-0  11044-3 0  9993,2 53396  53.2178 188.4360 0001452  92.6223 267.4935 15.08834932 87396,6917.896,95.438,540.765,538.756,0.0
53396.0,STARLINK-4524,PAYLOAD,2024-03-04 14:53:35,15.08841217,0.0001479,53.2179,183.9774,96.1018,264.0143,6.0911e-05,6.82e-06,0.0,0 STARLINK-4524,1 53396U 22097J   24064.62054932  .00000682  00000-0  60911-4 0  9990,2 53396  53.2179 183.9774 0001479  96.1018 264.0143 15.08841217 87541,6917.877,95.437,540.765,538.719,0.0
53396.0,STARLINK-4524,PAYLOAD,2024-03-05 00:25:54,15.088321,0.0001304,53.217,182.1914,90.3799,269.7342,1.1474e-05,-1.05e-06,0.0,0 STARLINK-4524,1 53396U 22097J   24065.01799663 -.00000105  00000-0  11474-4 0  9992,2 53396  53.2170 182.1914 0001304  90.3799 269.7342 15.08832100 87115,6917.905,95.438,540.672,538.867,0.0
53396.0,STARLINK-4524,PAYLOAD,2024-03-05 14:44:23,15.08832584,0.0001548,53.2181,179.5164,99.9978,260.1189,-1.1961e-05,-4.78e-06,0.0,0 STARLINK-4524,1 53396U 22097J   24065.61416168 -.00000478  00000-0 -11961-4 0  9999,2 53396  53.2181 179.5164 0001548  99.9978 260.1189 15.08832584 87691,6917.903,95.438,540.839,538.697,0.0
53396.0,STARLINK-4524,PAYLOAD,2024-03-06 11:24:23,15.08844979,0.0001496,53.2181,175.6525,101.6091,258.5069,3.6892e-05,2.99e-06,0.0,0 STARLINK-4524,1 53396U 22097J   24066.47527518  .00000299  00000-0  36892-4 0  9995,2 53396  53.2181 175.6525 0001496 101.6091 258.5069 15.08844979 87338,6917.865,95.437,540.765,538.695,0.0
53396.0,STARLINK-4524,PAYLOAD,2024-03-06 12:59:46,15.088477,0.0001515,53.2184,175.3555,102.4151,257.7011,5.3286e-05,5.6e-06,0.0,0 STARLINK-4524,1 53396U 22097J   24066.54151314  .00000560  00000-0  53286-4 0  9997,2 53396  53.2184 175.3555 0001515 102.4151 257.7011 15.08847700 87837,6917.857,95.437,540.77,538.674,0.0
53396.0,STARLINK-4524,PAYLOAD,2024-03-07 00:07:29,15.08836725,0.0001433,53.2165,173.2691,75.6547,284.4604,6.8875e-05,8.08e-06,0.0,0 STARLINK-4524,1 53396U 22097J   24067.00519901  .00000808  00000-0  68875-4 0  9994,2 53396  53.2165 173.2691 0001433  75.6547 284.4604 15.08836725 87417,6917.89,95.438,540.747,538.764,0.0
53396.0,STARLINK-4524,PAYLOAD,2024-03-07 14:25:58,15.08830977,0.0001501,53.2167,170.595,87.9833,272.1331,3.1716e-05,2.17e-06,0.0,0 STARLINK-4524,1 53396U 22097J   24067.60136928  .00000217  00000-0  31716-4 0  9992,2 53396  53.2167 170.5950 0001501  87.9833 272.1331 15.08830977 87994,6917.908,95.438,540.811,538.735,0.0
53396.0,STARLINK-4524,PAYLOAD,2024-03-08 11:05:57,15.08857755,0.0001501,53.2168,166.7295,84.4638,275.6525,7.4524e-05,8.99e-06,0.0,0 STARLINK-4524,1 53396U 22097J   24068.46247115  .00000899  00000-0  74524-4 0  9998,2 53396  53.2168 166.7295 0001501  84.4638 275.6525 15.08857755 87636,6917.826,95.436,540.729,538.653,0.0
53396.0,STARLINK-4524,PAYLOAD,2024-03-09 12:32:08,15.08840075,0.0001723,53.2174,161.9667,111.2409,248.8768,4.6188e-05,4.47e-06,0.0,0 STARLINK-4524,1 53396U 22097J   24069.52231893  .00000447  00000-0  46188-4 0  9996,2 53396  53.2174 161.9667 0001723 111.2409 248.8768 15.08840075 87799,6917.88,95.438,540.937,538.553,0.0
